TOMORROW-S2             
1 60485U 24149T   26189.77383058  .00005511  00000+0  17493-3 0  9998
2 60485  97.3813 270.6915 0003294 165.0151 195.1189 15.33077157105394
FLOCK 4BE-36            
1 60486U 24149U   26189.77694602  .00012409  00000+0  27967-3 0  9990
2 60486  97.3738 274.4730 0004291 170.3083 189.8249 15.43394438105683
FLOCK 4BE-25            
1 60487U 24149V   26190.19274936  .00010797  00000+0  27774-3 0  9997
2 60487  97.3792 273.5000 0003294 156.2094 203.9304 15.39431125105625
FLOCK 4BE-31            
1 60488U 24149W   26190.04645690  .00015235  00000+0  32503-3 0  9999
2 60488  97.3793 275.6689 0003379 166.3128 193.8213 15.44977948105751
FLOCK 4BE-20            
1 60489U 24149X   26190.16701510  .00011075  00000+0  29164-3 0  9994
2 60489  97.3689 272.2977 0004489 169.4129 190.7212 15.38700104105595
FLOCK 4BE-23            
1 60490U 24149Y   26190.03305605  .00010461  00000+0  27962-3 0  9999
2 60490  97.3776 272.5504 0004084 173.1683 186.9618 15.38255639105552
FLOCK 4BE-17            
1 60492U 24149AA  26189.72695059  .00011296  00000+0  28107-3 0  9999
2 60492  97.3765 273.2745 0003931 162.8357 197.3023 15.40434288105570
NUSAT-50 (NANCY ROMAN)  
1 60493U 24149AB  26189.75039695  .00006365  00000+0  22009-3 0  9997
2 60493  97.3781 270.8602 0004764 117.1706 243.0021 15.30243083105421
FLOCK 4BE-22            
1 60494U 24149AC  26190.20822575  .00012504  00000+0  29658-3 0  9996
2 60494  97.3733 273.9865 0004276 171.8142 188.3176 15.41857225105695
FLOCK 4BE-34            
1 60495U 24149AD  26189.77135223  .00011999  00000+0  28513-3 0  9990
2 60495  97.3774 274.3812 0004183 179.9988 180.1260 15.41812306105653
TYCHE                   
1 60496U 24149AE  26189.97251549  .00003030  00000+0  12139-3 0  9997
2 60496  97.3753 267.4973 0002326 187.4996 172.6208 15.25796270105226
FLOCK 4BE-32            
1 60497U 24149AF  26189.79009742  .00013635  00000+0  31189-3 0  9992
2 60497  97.3712 273.9609 0004383 177.0530 183.0744 15.42925610105664
NUSAT-48 (HENRIETTA LE*)
1 60498U 24149AG  26189.67383756  .00005961  00000+0  20661-3 0  9996
2 60498  97.3911 271.0648 0004189 178.7267 181.3985 15.30200838105424
NUSAT-49 (KLARA DAN VO*)
1 60500U 24149AJ  26189.78137068  .00006275  00000+0  21664-3 0  9998
2 60500  97.3775 270.9235 0001819 182.0121 178.1113 15.30310950105435
FLOCK 4BE-11            
1 60501U 24149AK  26189.77339707  .00013915  00000+0  30993-3 0  9996
2 60501  97.3692 274.1945 0004455 177.0967 183.0308 15.43716945105685
YAM-7                   
1 60504U 24149AN  26189.80816424  .00004620  00000+0  15151-3 0  9991
2 60504  97.3775 269.9731 0003023 189.0123 171.1065 15.32122293105360
FLOCK 4BE-24            
1 60505U 24149AP  26189.75797138  .00015720  00000+0  34742-3 0  9996
2 60505  97.3708 274.4441 0004456 189.5700 170.5464 15.43919955105696
LUR-1                   
1 60506U 24149AQ  26189.75739923  .00004969  00000+0  17166-3 0  9999
2 60506  97.3731 268.4322 0003333 206.3339 153.7733 15.30392812105272
TANAGER-1               
1 60507U 24149AR  26190.70477619  .00000245  00000+0  72329-5 0  9995
2 60507  97.2281 284.8679 0002763 147.2432 212.8988 15.43935842106519
EAGLEEYE                
1 60508U 24149AS  26189.79876300  .00102225  00000+0  66756-3 0  9999
2 60508  97.3703 284.3989 0004993 195.9799 164.1310 15.75536199106337
FLOCK 4BE-29            
1 60509U 24149AT  26189.81898487  .00031858  00000+0  67382-3 0  9992
2 60509  97.3804 276.0285 0003006 192.2560 167.8616 15.45081386105751
TRANSPORTER-11 OBJECT AU
1 60510U 24149AU  26190.66225414  .00010923  00000+0  26803-3 0  9996
2 60510  97.3723 274.5712 0003726 185.9119 174.2084 15.40866247105774
FLOCK 4BE-2             
1 60511U 24149AV  26190.66126500  .00051489  00000+0  75479-3 0  9998
2 60511  97.3824 278.6387 0005091 188.0676 172.0497 15.55382059105997
FLOCK 4BE-13            
1 60512U 24149AW  26189.76290344  .00010647  00000+0  24764-3 0  9998
2 60512  97.3713 274.4064 0004596 175.1537 184.9756 15.42489198105698
FLOCK 4BE-27            
1 60513U 24149AX  26190.75503846  .00006856  00000+0  20523-3 0  9990
2 60513  97.3821 272.6217 0003419 200.8149 159.2956 15.34852169105608
FLOCK 4BE-9             
1 60514U 24149AY  26190.03653995  .00011231  00000+0  27016-3 0  9990
2 60514  97.3785 274.5287 0003091 188.6470 171.4725 15.41465848105682
FLOCK 4BE-6             
1 60516U 24149BA  26189.75809424  .00010837  00000+0  27191-3 0  9994
2 60516  97.3783 273.5644 0003689 193.1062 167.0089 15.40192015105595
FLOCK 4BE-14            
1 60517U 24149BB  26190.17571948  .00013917  00000+0  33130-3 0  9992
2 60517  97.3690 274.1426 0004654 196.4822 163.6274 15.41719707105717
